0 FLOCK 4V 15
1 46528U 20061BE  22159.45675341  .00008110  00000-0  37444-3 0  9993
2 46528  97.3969 231.1845 0003659 158.1408 201.9984 15.20463110 93901
0 FLOCK 4V 15
1 46528U 20061BE  22159.45675341  .00008110  00000-0  37444-3 0  9993
2 46528  97.3969 231.1845 0003659 158.1408 201.9984 15.20463110 93901
0 FLOCK 4V 15
1 46528U 20061BE  22159.91743325  .00006655  00000-0  30783-3 0  9993
2 46528  97.3970 231.6367 0003672 158.1322 202.0070 15.20468457 93971
0 FLOCK 4V 15
1 46528U 20061BE  22160.50973452  .00005508  00000-0  25529-3 0  9994
2 46528  97.3970 232.2179 0003783 155.6801 204.4614 15.20473842 94061
0 FLOCK 4V 15
1 46528U 20061BE  22160.64135691  .00005113  00000-0  23721-3 0  9998
2 46528  97.3970 232.3471 0003791 155.5486 204.5930 15.20474583 94081
0 FLOCK 4V 15
1 46528U 20061BE  22160.64135691  .00005113  00000-0  23721-3 0  9998
2 46528  97.3970 232.3471 0003791 155.5486 204.5930 15.20474583 94081
0 FLOCK 4V 17
1 46529U 20061BF  22155.13852752  .00005292  00000-0  24579-3 0  9991
2 46529  97.3931 226.6539 0003627 156.6089 203.5312 15.20424168 92444
0 FLOCK 4V 17
1 46529U 20061BF  22155.46759440  .00005169  00000-0  24013-3 0  9993
2 46529  97.3931 226.9769 0003629 153.5250 206.6171 15.20426414 92498
0 FLOCK 4V 17
1 46529U 20061BF  22155.66503416  .00004701  00000-0  21866-3 0  9999
2 46529  97.3934 227.1705 0003651 154.5856 205.5560 15.20426815 92521
0 FLOCK 4V 17
1 46529U 20061BF  22156.19153917  .00004014  00000-0  18717-3 0  9993
2 46529  97.3933 227.6869 0003746 153.1810 206.9620 15.20429620 92604
0 FLOCK 4V 17
1 46529U 20061BF  22156.19153917  .00004014  00000-0  18717-3 0  9993
2 46529  97.3933 227.6869 0003746 153.1810 206.9620 15.20429620 92604
0 FLOCK 4V 17
1 46529U 20061BF  22157.17873326  .00002827  00000-0  13275-3 0  9999
2 46529  97.3938 228.6556 0003817 151.0913 209.0534 15.20433614 92755
0 FLOCK 4V 17
1 46529U 20061BF  22157.63942235  .00003476  00000-0  16246-3 0  9998
2 46529  97.3944 229.1075 0003844 149.1327 211.0135 15.20438032 92828
0 FLOCK 4V 17
1 46529U 20061BF  22157.63942235  .00003476  00000-0  16246-3 0  9998
2 46529  97.3944 229.1075 0003844 149.1327 211.0135 15.20438032 92828
0 FLOCK 4V 17
1 46529U 20061BF  22158.16591894  .00004195  00000-0  19539-3 0  9995
2 46529  97.3940 229.6238 0003895 147.5650 212.5826 15.20445669 92903
0 FLOCK 4V 17
1 46529U 20061BF  22159.15309597  .00005824  00000-0  26983-3 0  9993
2 46529  97.3947 230.5937 0004724 142.5703 217.5863 15.20461925 93059
0 FLOCK 4V 17
1 46529U 20061BF  22159.48215428  .00006151  00000-0  28478-3 0  9993
2 46529  97.3937 230.9141 0003239 147.5768 212.5667 15.20466323 93105
0 FLOCK 4V 17
1 46529U 20061BF  22159.61377677  .00006102  00000-0  28251-3 0  9998
2 46529  97.3941 231.0439 0003552 145.5729 214.5737 15.20467990 93128
0 FLOCK 4V 18
1 46597U 20061BG  22155.18581825  .00006312  00000-0  29247-3 0  9992
2 46597  97.4037 227.1054 0007792 164.5089 195.6386 15.20409872 91817
0 FLOCK 4V 18
1 46597U 20061BG  22155.44907367  .00006194  00000-0  28706-3 0  9991
2 46597  97.4037 227.3640 0007822 163.6727 196.4762 15.20412665 91858
0 FLOCK 4V 18
1 46597U 20061BG  22155.64651476  .00006321  00000-0  29283-3 0  9993
2 46597  97.4036 227.5580 0007848 162.9388 197.2113 15.20415445 91886
0 FLOCK 4V 18
1 46597U 20061BG  22156.43627451  .00007228  00000-0  33425-3 0  9997
2 46597  97.4035 228.3337 0007879 160.8528 199.3005 15.20427623 92000
0 FLOCK 4V 18
1 46597U 20061BG  22156.43627451  .00007228  00000-0  33425-3 0  9997
2 46597  97.4035 228.3337 0007879 160.8528 199.3005 15.20427623 92000
0 FLOCK 4V 18
1 46597U 20061BG  22157.16021352  .00008053  00000-0  37183-3 0  9998
2 46597  97.4036 229.0448 0007939 158.7668 201.3898 15.20442057 92114
0 FLOCK 4V 18
1 46597U 20061BG  22158.14739110  .00010956  00000-0  50420-3 0  9999
2 46597  97.4035 230.0144 0008015 155.5910 204.5707 15.20467195 92269
0 FLOCK 4V 18
1 46597U 20061BG  22158.47644659  .00011422  00000-0  52532-3 0  9993
2 46597  97.4039 230.3377 0008033 154.8815 205.2812 15.20475631 92315
0 FLOCK 4V 18
1 46597U 20061BG  22159.46360122  .00011846  00000-0  54422-3 0  9993
2 46597  97.4040 231.3072 0008132 151.5957 208.5723 15.20503383 92460
0 FLOCK 4V 18
1 46597U 20061BG  22159.46360122  .00011846  00000-0  54422-3 0  9993
2 46597  97.4040 231.3072 0008132 151.5957 208.5723 15.20503383 92460
0 FLOCK 4V 18
1 46597U 20061BG  22160.45074125  .00009531  00000-0  43836-3 0  9994
2 46597  97.4040 232.2767 0008211 148.4035 211.7694 15.20523399 92610
0 FLOCK 4V 18
1 46597U 20061BG  22160.64816810  .00009215  00000-0  42393-3 0  9996
2 46597  97.4038 232.4706 0008205 148.5682 211.6045 15.20526612 92647
0 FLOCK 4V 18
1 46597U 20061BG  22160.91140356  .00008542  00000-0  39318-3 0  9996
2 46597  97.4042 232.7292 0008172 148.1577 212.0153 15.20529463 92683
0 FLOCK 4V 19
1 46609U 20061BH  22155.61219352  .00005593  00000-0  25969-3 0  9994
2 46609  97.3922 226.9686 0004525 142.6567 217.4984 15.20403546 91448
0 FLOCK 4V 19
1 46609U 20061BH  22155.61219352  .00005593  00000-0  25969-3 0  9994
2 46609  97.3922 226.9686 0004525 142.6567 217.4984 15.20403546 91448
0 FLOCK 4V 19
1 46609U 20061BH  22156.46777212  .00005110  00000-0  23745-3 0  9997
2 46609  97.3919 227.8078 0004570 141.7127 218.4434 15.20416005 91570
0 FLOCK 4V 19
1 46609U 20061BH  22156.92846523  .00005375  00000-0  24955-3 0  9997
2 46609  97.3925 228.2604 0004688 139.0143 221.1446 15.20423583 91646
0 FLOCK 4V 19
1 46609U 20061BH  22157.45496798  .00008524  00000-0  39366-3 0  9992
2 46609  97.3917 228.7756 0004597 138.1532 222.0055 15.20436266 91728
0 FLOCK 4V 19
1 46609U 20061BH  22157.65240591  .00008546  00000-0  39462-3 0  9993
2 46609  97.3917 228.9692 0004629 137.5270 222.6324 15.20439797 91757
0 FLOCK 4V 19
1 46609U 20061BH  22158.17890466  .00008543  00000-0  39437-3 0  9992
2 46609  97.3916 229.4854 0004670 136.1628 223.9979 15.20448802 91836
0 FLOCK 4V 19
1 46609U 20061BH  22158.44215274  .00008559  00000-0  39503-3 0  9991
2 46609  97.3916 229.7437 0004688 135.5755 224.5857 15.20453490 91874
0 FLOCK 4V 19
1 46609U 20061BH  22158.77121128  .00009315  00000-0  42950-3 0  9992
2 46609  97.3917 230.0664 0004693 134.9185 225.2431 15.20461158 91920
0 FLOCK 4V 19
1 46609U 20061BH  22159.23189108  .00009354  00000-0  43119-3 0  9997
2 46609  97.3917 230.5182 0004699 133.8983 226.2641 15.20470177 91992
0 FLOCK 4V 19
1 46609U 20061BH  22159.23189108  .00009354  00000-0  43119-3 0  9997
2 46609  97.3917 230.5182 0004699 133.8983 226.2641 15.20470177 91992
0 FLOCK 4V 19
1 46609U 20061BH  22160.15324312  .00009942  00000-0  45781-3 0  9998
2 46609  97.3909 231.4231 0004257 130.5419 229.6308 15.20489904 92138
0 FLOCK 4V 19
1 46609U 20061BH  22160.67972199  .00009649  00000-0  44428-3 0  9998
2 46609  97.3920 231.9379 0004767 130.6964 229.4687 15.20500772 92215
0 FLOCK 4V 20
1 46612U 20061BJ  22155.47383738  .00003935  00000-0  18318-3 0  9990
2 46612  97.4023 227.2162 0007951 169.1109 191.0300 15.20478816 90923
0 FLOCK 4V 20
1 46612U 20061BJ  22155.67126914  .00004421  00000-0  20541-3 0  9995
2 46612  97.4022 227.4101 0007940 168.0892 192.0533 15.20482261 90953
0 FLOCK 4V 20
1 46612U 20061BJ  22155.67126914  .00004421  00000-0  20541-3 0  9995
2 46612  97.4022 227.4101 0007940 168.0892 192.0533 15.20482261 90942
0 FLOCK 4V 20
1 46612U 20061BJ  22156.59261533  .00004776  00000-0  22158-3 0  9993
2 46612  97.4023 228.3152 0008000 165.5702 194.5763 15.20492527 91094
0 FLOCK 4V 20
1 46612U 20061BJ  22157.18490671  .00004365  00000-0  20274-3 0  9997
2 46612  97.4022 228.8968 0008055 163.7136 196.4360 15.20497624 91170
0 FLOCK 4V 20
1 46612U 20061BJ  22157.44814604  .00005188  00000-0  24034-3 0  9994
2 46612  97.4023 229.1553 0008078 162.8430 197.3080 15.20502480 91229
0 FLOCK 4V 20
1 46612U 20061BJ  22157.71138518  .00005402  00000-0  25008-3 0  9998
2 46612  97.4022 229.4138 0008103 161.9037 198.2488 15.20505765 91267
0 FLOCK 4V 20
1 46612U 20061BJ  22158.43529067  .00005354  00000-0  24782-3 0  9995
2 46612  97.4022 230.1248 0008167 159.5031 200.6533 15.20512965 91376
0 FLOCK 4V 20
1 46612U 20061BJ  22158.43529067  .00005354  00000-0  24782-3 0  9995
2 46612  97.4022 230.1248 0008167 159.5031 200.6533 15.20512965 91365
0 FLOCK 4V 20
1 46612U 20061BJ  22158.63271887  .00005318  00000-0  24618-3 0  9999
2 46612  97.4022 230.3187 0008180 158.9246 201.2328 15.20514986 91404
0 FLOCK 4V 20
1 46612U 20061BJ  22159.15919191  .00005749  00000-0  26579-3 0  9990
2 46612  97.4024 230.8357 0008226 157.2806 202.8795 15.20522037 91484
0 FLOCK 4V 20
1 46612U 20061BJ  22159.61985431  .00005901  00000-0  27267-3 0  9996
2 46612  97.4024 231.2881 0008268 155.9490 204.2133 15.20527461 91557
0 FLOCK 4V 20
1 46612U 20061BJ  22159.61985431  .00005901  00000-0  27267-3 0  9996
2 46612  97.4024 231.2881 0008268 155.9490 204.2133 15.20527461 91546
0 FLOCK 4V 20
1 46612U 20061BJ  22160.14632296  .00006220  00000-0  28717-3 0  9990
2 46612  97.4026 231.8052 0008312 154.3690 205.7959 15.20534836 91635
0 FLOCK 4V 20
1 46612U 20061BJ  22160.60698114  .00006077  00000-0  28063-3 0  9996
2 46612  97.4027 232.2575 0008365 153.0409 207.1263 15.20540501 91701
0 FLOCK 4V 22
1 46735U 20061BL  22155.63030952  .00008510  00000-0  39308-3 0  9997
2 46735  97.3883 226.4367 0006547 153.1754 206.9804 15.20417912 89786
0 FLOCK 4V 22
1 46735U 20061BL  22155.95937683  .00007837  00000-0  36225-3 0  9995
2 46735  97.3870 226.7574 0006716 157.9170 202.2108 15.20419144 89838
0 FLOCK 4V 22
1 46735U 20061BL  22156.94658347  .00007163  00000-0  33130-3 0  9996
2 46735  97.3856 227.7224 0006383 154.0485 206.0923 15.20429645 89982
0 FLOCK 4V 22
1 46735U 20061BL  22157.14402670  .00006979  00000-0  32286-3 0  9990
2 46735  97.3859 227.9164 0006548 152.2278 207.9308 15.20431193 90017
0 FLOCK 4V 22
1 46735U 20061BL  22157.67052950  .00006890  00000-0  31875-3 0  9995
2 46735  97.3857 228.4318 0006499 150.9124 209.2465 15.20438014 90098
